GLOBALSTAR M001         
1 25162U 98008A   25063.35982226 -.00000064  00000+0  25209-3 0  9995
2 25162  52.0023 278.3359 0002210  50.3130 121.6038 12.38208447230728
GLOBALSTAR M004         
1 25163U 98008B   25063.87587334 -.00000064  00000+0  22047-3 0  9991
2 25163  52.0031  12.3783 0003484  60.3971 333.3900 12.63389207248601
GLOBALSTAR M002         
1 25164U 98008C   25063.43339927 -.00000077  00000+0 -18570-4 0  9999
2 25164  52.0005 142.8566 0000679 314.0960  45.9804 11.61508237171899
GLOBALSTAR M003         
1 25165U 98008D   25063.49124771 -.00000051  00000+0  40929-3 0  9998
2 25165  51.9985  98.4809 0008283  84.0309  64.1323 12.12073581220521
GLOBALSTAR M014         
1 25306U 98023A   25063.51789280 -.00000086  00000+0 -15414-3 0  9997
2 25306  51.9839  68.0681 0001134 158.9957  12.6104 11.65478545178966
GLOBALSTAR M006         
1 25307U 98023B   25063.45026108 -.00000068  00000+0  16314-3 0  9993
2 25307  51.9926 116.7997 0003065 268.7934 192.3858 11.58172617204690
GLOBALSTAR M015         
1 25308U 98023C   25063.47278903 -.00000055  00000+0  42127-3 0  9995
2 25308  51.9794 210.4146 0011907 246.8771 189.7199 11.48858768182041
GLOBALSTAR M008         
1 25309U 98023D   25063.52538787 -.00000038  00000+0  45755-3 0  9992
2 25309  51.9963 141.4959 0001971 319.1231 145.2643 12.36063859224900
